[{"OBJECT_NAME":"TWILIGHT-1 OBJECT AH","OBJECT_ID":"2026-004AH","EPOCH":"2026-03-09T22:52:54.416640","MEAN_MOTION":15.18463683,"ECCENTRICITY":0.00080362,"INCLINATION":97.4496,"RA_OF_ASC_NODE":69.4327,"ARG_OF_PERICENTER":333.3354,"MEAN_ANOMALY":26.7466,"EPHEMERIS_TYPE":0,"CLASSIFICATION_TYPE":"U","NORAD_CAT_ID":67394,"ELEMENT_SET_NO":999,"REV_AT_EPOCH":870,"BSTAR":0.0001790114,"MEAN_MOTION_DOT":3.623e-5,"MEAN_MOTION_DDOT":0},{"OBJECT_NAME":"COSMOS 375 DEB","OBJECT_ID":"1970-091AV","EPOCH":"2026-03-08T14:58:13.963008","MEAN_MOTION":13.44113345,"ECCENTRICITY":0.07825177,"INCLINATION":62.6579,"RA_OF_ASC_NODE":178.3172,"ARG_OF_PERICENTER":107.019,"MEAN_ANOMALY":261.8029,"EPHEMERIS_TYPE":0,"CLASSIFICATION_TYPE":"U","NORAD_CAT_ID":18866,"ELEMENT_SET_NO":999,"REV_AT_EPOCH":70150,"BSTAR":0.0010424485,"MEAN_MOTION_DOT":4.043e-5,"MEAN_MOTION_DDOT":0}]
